H1 CPF 01  gfz 2021 04 26 12  6162 tandemx   
H2 1003001  6202 36605    2021 04 26 12 59 42 2021 05 01 00 00 42   120 1 1  0 0 0
H9
10 0 59332  56142.000000  0    3359554.450   3296278.478  -5038035.776
10 0 59332  56262.000000  0    3947760.319   3566505.938  -4384416.342
10 0 59332  56382.000000  0    4471406.861   3764974.755  -3654001.627
10 0 59332  56502.000000  0    4920026.615   3889383.332  -2859517.036
10 0 59332  56622.000000  0    5284416.404   3938888.326  -2014841.975
10 0 59332  56742.000000  0    5556832.746   3914103.532  -1134769.498
10 0 59332  56862.000000  0    5731161.860   3817068.601   -234745.187
10 0 59332  56982.000000  0    5803059.730   3651188.968    669408.355
10 0 59332  57102.000000  0    5770058.658   3421147.318   1561777.159
10 0 59332  57222.000000  0    5631635.605   3132788.373   2426644.831
10 0 59332  57342.000000  0    5389241.370   2792981.200   3248778.078
10 0 59332  57462.000000  0    5046289.331   2409461.302   4013703.289
10 0 59332  57582.000000  0    4608102.928   1990656.423   4707966.232
10 0 59332  57702.000000  0    4081827.678   1545502.329   5319368.735
10 0 59332  57822.000000  0    3476307.793   1083252.575   5837184.520
10 0 59332  57942.000000  0    2801927.241    613285.056   6252343.207
10 0 59332  58062.000000  0    2070425.103    144912.222   6557581.341
10 0 59332  58182.000000  0    1294688.179   -312801.745   6747563.904
10 0 59332  58302.000000  0     488521.249   -751215.695   6818973.930
10 0 59332  58422.000000  0    -333600.475  -1162274.205   6770566.053
10 0 59332  58542.000000  0   -1156791.051  -1538655.122   6603186.213
10 0 59332  58662.000000  0   -1966022.404  -1873900.135   6319756.452
10 0 59332  58782.000000  0   -2746396.373  -2162524.863   5925226.693
10 0 59332  58902.000000  0   -3483419.174  -2400109.517   5426496.643
10 0 59332  59022.000000  0   -4163275.960  -2583368.942   4832301.588
10 0 59332  59142.000000  0   -4773095.036  -2710198.514   4153063.501
10 0 59332  59262.000000  0   -5301197.865  -2779694.772   3400711.541
10 0 59332  59382.000000  0   -5737329.870  -2792150.969   2588475.072
10 0 59332  59502.000000  0   -6072868.133  -2749028.368   1730651.191
10 0 59332  59622.000000  0   -6301000.051  -2652903.631    842348.520
10 0 59332  59742.000000  0   -6416865.745  -2507390.735    -60786.526
10 0 59332  59862.000000  0   -6417662.912  -2317041.632   -962853.250
10 0 59332  59982.000000  0   -6302709.749  -2087227.222  -1847986.896
10 0 59332  60102.000000  0   -6073463.381  -1824002.382  -2700645.822
10 0 59332  60222.000000  0   -5733496.072  -1533958.698  -3505889.734
10 0 59332  60342.000000  0   -5288429.899  -1224068.792  -4249643.934
10 0 59332  60462.000000  0   -4745832.360   -901526.281  -4918944.204
10 0 59332  60582.000000  0   -4115075.749   -573584.800  -5502158.398
10 0 59332  60702.000000  0   -3407163.736   -247400.479  -5989180.258
10 0 59332  60822.000000  0   -2634530.954     70118.968  -6371593.239
10 0 59332  60942.000000  0   -1810820.254    372454.994  -6642803.930
10 0 59332  61062.000000  0    -950640.728    653606.135  -6798144.635
10 0 59332  61182.000000  0     -69311.948    908202.735  -6834944.424
10 0 59332  61302.000000  0     817401.996   1131606.079  -6752569.045
10 0 59332  61422.000000  0    1693566.877   1319989.930  -6552433.183
10 0 59332  61542.000000  0    2543359.279   1470405.593  -6237979.560
10 0 59332  61662.000000  0    3351347.632   1580827.773  -5814625.603
10 0 59332  61782.000000  0    4102768.720   1650180.469  -5289678.487
10 0 59332  61902.000000  0    4783797.375   1678343.505  -4672221.234
10 0 59332  62022.000000  0    5381805.812   1666139.286  -3972966.746
10 0 59332  62142.000000  0    5885604.867   1615299.032  -3204081.205
10 0 59332  62262.000000  0    6285663.132   1528409.203  -2378980.397
10 0 59332  62382.000000  0    6574299.926   1408839.445  -1512099.746
10 0 59332  62502.000000  0    6745844.606   1260652.769   -618641.004
10 0 59332  62622.000000  0    6796757.889   1088499.447    285698.679
10 0 59332  62742.000000  0    6725710.180    897498.481   1185009.044
10 0 59332  62862.000000  0    6533618.537    693108.839   2063453.969
10 0 59332  62982.000000  0    6223637.202    480992.749   2905560.679
10 0 59332  63102.000000  0    5801101.945    266875.864   3696499.943
10 0 59332  63222.000000  0    5273430.924     56407.380   4422353.672
10 0 59332  63342.000000  0    4649985.513   -144974.637   5070361.843
10 0 59332  63462.000000  0    3941894.463   -332172.536   5629148.390
10 0 59332  63582.000000  0    3161844.203   -500547.716   6088917.356
10 0 59332  63702.000000  0    2323843.792   -646025.711   6441619.405
10 0 59332  63822.000000  0    1442968.150   -765187.312   6681087.074
10 0 59332  63942.000000  0     535082.843   -855343.593   6803138.013
10 0 59332  64062.000000  0    -383444.049   -914593.067   6805642.575
10 0 59332  64182.000000  0   -1296036.532   -941860.566   6688557.558
10 0 59332  64302.000000  0   -2186208.535   -936916.794   6453926.315
10 0 59332  64422.000000  0   -3037859.967   -900378.036   6105845.146
10 0 59332  64542.000000  0   -3835568.276   -833686.341   5650397.938
10 0 59332  64662.000000  0   -4564871.985   -739071.273   5095556.700
10 0 59332  64782.000000  0   -5212539.702   -619493.265   4451047.746
10 0 59332  64902.000000  0   -5766818.274   -478569.315   3728185.110
10 0 59332  65022.000000  0   -6217654.650   -320482.633   2939674.227
10 0 59332  65142.000000  0   -6556888.092   -149878.081   2099390.055
10 0 59332  65262.000000  0   -6778408.558     28254.710   1222130.201
10 0 59332  65382.000000  0   -6878274.526    208706.589    323347.970
10 0 59332  65502.000000  0   -6854787.462    386180.053   -581128.238
10 0 59332  65622.000000  0   -6708520.473    555423.263  -1475383.103
10 0 59332  65742.000000  0   -6442300.543    711362.637  -2343702.228
10 0 59332  65862.000000  0   -6061148.474    849231.124  -3170854.543
10 0 59332  65982.000000  0   -5572173.682    964689.318  -3942366.075
10 0 59332  66102.000000  0   -4984427.612   1053935.632  -4644773.344
10 0 59332  66222.000000  0   -4308723.176   1113803.201  -5265854.643
10 0 59332  66342.000000  0   -3557424.134   1141841.440  -5794834.994
10 0 59332  66462.000000  0   -2744210.376   1136380.480  -6222562.988
10 0 59332  66582.000000  0   -1883824.071   1096577.383  -6541657.443
10 0 59332  66702.000000  0    -991800.942   1022445.212  -6746623.580
10 0 59332  66822.000000  0     -84192.379    914862.663  -6833936.334
10 0 59332  66942.000000  0     822716.023    775565.280  -6802093.721
10 0 59332  67062.000000  0    1712689.114    607117.997  -6651642.425
10 0 59332  67182.000000  0    2569827.331    412869.120  -6385169.581
10 0 59332  67302.000000  0    3378845.202    196887.080  -6007263.057
10 0 59332  67422.000000  0    4125340.758    -36120.075  -5524439.856
10 0 59332  67542.000000  0    4796050.824   -280901.138  -4945044.578
10 0 59332  67662.000000  0    5379091.560   -531772.184  -4279117.662
10 0 59332  67782.000000  0    5864177.029   -782739.910  -3538231.291
10 0 59332  67902.000000  0    6242810.903  -1027635.215  -2735296.865
10 0 59332  68022.000000  0    6508447.636  -1260254.707  -1884345.592
10 0 59332  68142.000000  0    6656618.442  -1474506.245  -1000284.681
10 0 59332  68262.000000  0    6685017.367  -1664555.083    -98633.985
10 0 59332  68382.000000  0    6593545.754  -1824967.224    804751.576
10 0 59332  68502.000000  0    6384312.102  -1950846.079   1693969.211
10 0 59332  68622.000000  0    6061587.093  -2037958.970   2553356.969
10 0 59332  68742.000000  0    5631715.080  -2082849.663   3367778.956
10 0 59332  68862.000000  0    5102983.185  -2082933.975   4122898.905
10 0 59332  68982.000000  0    4485453.244  -2036576.595   4805435.983
10 0 59332  69102.000000  0    3790762.638  -1943146.647   5403399.531
10 0 59332  69222.000000  0    3031896.062  -1803052.197   5906299.750
10 0 59332  69342.000000  0    2222933.913  -1617751.836   6305327.123
10 0 59332  69462.000000  0    1378785.579  -1389744.237   6593500.922
10 0 59332  69582.000000  0     514910.595  -1122535.617   6765785.748
10 0 59332  69702.000000  0    -352966.508   -820585.060   6819173.830
10 0 59332  69822.000000  0   -1209141.942   -489229.558   6752733.093
10 0 59332  69942.000000  0   -2038215.407   -134589.916   6567622.232
10 0 59332  70062.000000  0   -2825365.850    236541.815   6267072.005
10 0 59332  70182.000000  0   -3556616.679    616831.321   5856333.292
10 0 59332  70302.000000  0   -4219086.928    998545.095   5342591.468
10 0 59332  70422.000000  0   -4801223.691   1373705.588   4734846.680
10 0 59332  70542.000000  0   -5293011.027   1734256.350   4043761.520
10 0 59332  70662.000000  0   -5686150.573   2072232.901   3281477.018
10 0 59332  70782.000000  0   -5974209.737   2379935.942   2461400.958
10 0 59332  70902.000000  0   -6152735.189   2650103.063   1597971.230
10 0 59332  71022.000000  0   -6219328.327   2876075.068    706397.039
10 0 59332  71142.000000  0   -6173678.330   3051951.924   -197616.858
10 0 59332  71262.000000  0   -6017553.109   3172734.399  -1098155.273
10 0 59332  71382.000000  0   -5754748.418   3234447.357  -1979381.712
10 0 59332  71502.000000  0   -5390996.081   3234242.647  -2825825.875
10 0 59332  71622.000000  0   -4933832.925   3170477.538  -3622661.206
10 0 59332  71742.000000  0   -4392436.069   3042768.023  -4355966.868
10 0 59332  71862.000000  0   -3777429.091   2852015.851  -5012968.561
10 0 59332  71982.000000  0   -3100664.814   2600409.129  -5582254.674
10 0 59332  72102.000000  0   -2374991.419   2291397.979  -6053964.621
10 0 59332  72222.000000  0   -1614004.856   1929645.720  -6419950.031
10 0 59332  72342.000000  0    -831792.654   1520955.796  -6673903.058
10 0 59332  72462.000000  0     -42676.360   1072177.704  -6811454.077
10 0 59332  72582.000000  0     739044.757    591093.000  -6830238.099
99
